OBJECT_NAME,OBJECT_ID,EPOCH,MEAN_MOTION,ECCENTRICITY,INCLINATION,RA_OF_ASC_NODE,ARG_OF_PERICENTER,MEAN_ANOMALY,EPHEMERIS_TYPE,CLASSIFICATION_TYPE,NORAD_CAT_ID,ELEMENT_SET_NO,REV_AT_EPOCH,BSTAR,MEAN_MOTION_DOT,MEAN_MOTION_DDOT
IRIDIUM 135,2017-083A,2026-07-23T13:41:51.198144,14.34217480,.00021233,86.3985,306.8081,95.3035,264.8404,0,U,43070,999,44936,-.6177617E-5,.2E-7,0
IRIDIUM 138,2017-083B,2026-07-23T12:37:55.097760,14.34217942,.00020954,86.3999,306.5275,96.4613,263.6821,0,U,43071,999,44934,.32277777E-4,.11E-5,0
IRIDIUM 116,2017-083C,2026-07-23T08:31:19.236864,14.34218327,.00025444,86.3984,306.8836,96.3834,263.7652,0,U,43072,999,44935,.61418569E-4,.192E-5,0
IRIDIUM 130,2017-083D,2026-07-23T12:47:03.153696,14.34218485,.00023605,86.3992,307.0882,99.6170,260.5293,0,U,43073,999,44932,.45606124E-4,.148E-5,0
IRIDIUM 151,2017-083E,2026-07-23T13:50:59.132256,14.34218318,.00022936,86.3987,306.8494,94.8565,265.2893,0,U,43074,999,44935,.24779946E-4,.89E-6,0
IRIDIUM 134,2017-083F,2026-07-23T13:05:19.167936,14.34217609,.00021605,86.3987,306.8712,96.6093,263.5349,0,U,43075,999,44931,-.4317116E-5,.8E-7,0
IRIDIUM 137,2017-083G,2026-07-23T08:22:11.260416,14.34217763,.0002626,86.3989,307.0469,89.5917,270.5580,0,U,43076,999,44935,-.898271E-6,.17E-6,0
IRIDIUM 141,2017-083H,2026-07-23T13:14:27.134016,14.34218577,.00021669,86.3984,306.7907,93.9879,266.1564,0,U,43077,999,44938,.50779881E-4,.162E-5,0
IRIDIUM 153,2017-083J,2026-07-23T05:23:43.387872,14.34217665,.00020391,86.3952,275.4046,96.6652,263.4776,0,U,43078,999,45044,.1728389E-5,.25E-6,0
IRIDIUM 131,2017-083K,2026-07-23T07:54:47.161728,14.34217999,.00022041,86.3990,307.0718,93.3563,266.7885,0,U,43079,999,44928,.9298003E-5,.46E-6,0
IRIDIUM 144,2018-030A,2026-07-23T05:32:51.406656,14.34218065,.00024112,86.3950,275.3305,95.7524,264.3946,0,U,43249,999,43530,.31566076E-4,.108E-5,0
IRIDIUM 149,2018-030B,2026-07-23T10:43:23.396448,14.34217846,.00022309,86.3947,275.2068,93.9513,266.1938,0,U,43250,999,43535,.3610996E-5,.3E-6,0
IRIDIUM 157,2018-030C,2026-07-23T14:31:43.421088,14.34217778,.00022637,86.3949,275.1946,94.7647,265.3807,0,U,43251,999,43535,-.285571E-5,.12E-6,0
IRIDIUM 140,2018-030D,2026-07-23T13:18:39.409056,14.34218168,.00022715,86.3949,275.2283,96.3084,263.8370,0,U,43252,999,43540,.27067751E-4,.96E-6,0
IRIDIUM 145,2018-030E,2026-07-23T14:40:51.475296,14.34217989,.00025949,86.3947,275.1761,95.7631,264.3861,0,U,43253,999,43534,.21037987E-4,.79E-6,0
IRIDIUM 146,2018-030F,2026-07-23T10:52:31.471392,14.34217839,.00023665,86.3949,275.2550,94.8952,265.2514,0,U,43254,999,43533,.10997189E-4,.51E-6,0
IRIDIUM 148,2018-030G,2026-07-23T13:27:47.419200,14.34218131,.0002307,86.3951,275.2537,92.7807,267.3653,0,U,43255,999,43538,.9602101E-5,.47E-6,0
IRIDIUM 142,2018-030H,2026-07-23T14:22:35.413536,14.34218657,.00024471,86.3947,275.1253,95.0047,265.1428,0,U,43256,999,43535,.53786106E-4,.17E-5,0
IRIDIUM 150,2018-030J,2026-07-23T06:55:03.490176,14.34217500,.00023451,86.3950,275.3727,96.0972,264.0492,0,U,43257,999,43533,.9582033E-5,.47E-6,0
IRIDIUM 143,2018-030K,2026-07-23T13:09:31.445568,14.34217735,.00023649,86.3952,275.3579,95.6241,264.5225,0,U,43258,999,43530,-.3299066E-5,.11E-6,0
IRIDIUM 161,2018-047C,2026-07-23T15:17:18.959136,14.43278818,.00021215,86.4452,73.2256,81.2358,278.9083,0,U,43478,999,43039,.63893385E-4,.235E-5,0
IRIDIUM 152,2018-047D,2026-07-23T04:07:54.242112,14.34217250,.00019621,86.3924,73.2813,84.3346,275.8073,0,U,43479,999,42764,-.21741395E-4,-.41E-6,0
IRIDIUM 147,2018-047E,2026-07-23T14:19:50.281536,14.34217503,.00023137,86.3930,73.1096,87.0481,273.0980,0,U,43480,999,42770,-.5049421E-5,.6E-7,0
IRIDIUM 110,2018-047F,2026-07-23T12:48:30.088512,14.34217988,.00019704,86.3933,73.2291,79.3192,280.8226,0,U,43481,999,42768,.44590672E-4,.145E-5,0
IRIDIUM 162,2018-047G,2026-07-23T03:29:22.451136,14.43281520,.00021757,86.4453,73.3219,86.7843,273.3606,0,U,43482,999,43031,.6779507E-4,.248E-5,0
IRIDIUM 160,2018-061A,2026-07-23T06:29:06.366048,14.34218313,.00021874,86.3938,41.7027,87.0743,273.0703,0,U,43569,999,41854,.33486227E-4,.114E-5,0
IRIDIUM 166,2018-061B,2026-07-23T10:26:34.611648,14.34216774,.0002181,86.3932,41.5837,89.5985,270.5460,0,U,43570,999,41859,-.24348055E-4,-.48E-6,0
IRIDIUM 158,2018-061C,2026-07-23T06:19:58.411200,14.34218554,.00021101,86.3936,41.6652,89.6604,270.4834,0,U,43571,999,41853,.51296945E-4,.163E-5,0
IRIDIUM 165,2018-061D,2026-07-23T11:57:54.505728,14.34217994,.00022943,86.3941,41.6143,90.5520,269.5938,0,U,43572,999,41859,.26301164E-4,.93E-6,0
IRIDIUM 155,2018-061E,2026-07-23T06:01:42.426336,14.34217967,.00021983,86.3934,41.5848,91.0810,269.0638,0,U,43573,999,41852,.14436378E-4,.6E-6,0
