IRIDIUM 135             
1 43070U 17083A   26204.57073146  .00000002  00000+0 -61776-5 0  9994
2 43070  86.3985 306.8081 0002123  95.3035 264.8404 14.34217480449362
IRIDIUM 138             
1 43071U 17083B   26204.52633215  .00000110  00000+0  32278-4 0  9992
2 43071  86.3999 306.5275 0002095  96.4613 263.6821 14.34217942449343
IRIDIUM 116             
1 43072U 17083C   26204.35508376  .00000192  00000+0  61419-4 0  9992
2 43072  86.3984 306.8836 0002544  96.3834 263.7652 14.34218327449359
IRIDIUM 130             
1 43073U 17083D   26204.53267539  .00000148  00000+0  45606-4 0  9997
2 43073  86.3992 307.0882 0002360  99.6170 260.5293 14.34218485449326
IRIDIUM 151             
1 43074U 17083E   26204.57707329  .00000089  00000+0  24780-4 0  9992
2 43074  86.3987 306.8494 0002293  94.8565 265.2893 14.34218318449353
IRIDIUM 134             
1 43075U 17083F   26204.54536074  .00000008  00000+0 -43171-5 0  9995
2 43075  86.3987 306.8712 0002160  96.6093 263.5349 14.34217609449311
IRIDIUM 137             
1 43076U 17083G   26204.34874144  .00000017  00000+0 -89827-6 0  9996
2 43076  86.3989 307.0469 0002626  89.5917 270.5580 14.34217763449359
IRIDIUM 141             
1 43077U 17083H   26204.55170294  .00000162  00000+0  50780-4 0  9999
2 43077  86.3984 306.7907 0002166  93.9879 266.1564 14.34218577449383
IRIDIUM 153             
1 43078U 17083J   26204.22480773  .00000025  00000+0  17284-5 0  9991
2 43078  86.3952 275.4046 0002039  96.6652 263.4776 14.34217665450444
IRIDIUM 131             
1 43079U 17083K   26204.32971252  .00000046  00000+0  92980-5 0  9999
2 43079  86.3990 307.0718 0002204  93.3563 266.7885 14.34217999449281
IRIDIUM 144             
1 43249U 18030A   26204.23115054  .00000108  00000+0  31566-4 0  9992
2 43249  86.3950 275.3305 0002411  95.7524 264.3946 14.34218065435303
IRIDIUM 149             
1 43250U 18030B   26204.44679857  .00000030  00000+0  36110-5 0  9998
2 43250  86.3947 275.2068 0002230  93.9513 266.1938 14.34217846435355
IRIDIUM 157             
1 43251U 18030C   26204.60536367  .00000012  00000+0 -28557-5 0  9992
2 43251  86.3949 275.1946 0002263  94.7647 265.3807 14.34217778435355
IRIDIUM 140             
1 43252U 18030D   26204.55462279  .00000096  00000+0  27068-4 0  9993
2 43252  86.3949 275.2283 0002271  96.3084 263.8370 14.34218168435401
IRIDIUM 145             
1 43253U 18030E   26204.61170689  .00000079  00000+0  21038-4 0  9994
2 43253  86.3947 275.1761 0002594  95.7631 264.3861 14.34217989435343
IRIDIUM 146             
1 43254U 18030F   26204.45314203  .00000051  00000+0  10997-4 0  9991
2 43254  86.3949 275.2550 0002366  94.8952 265.2514 14.34217839435334
IRIDIUM 148             
1 43255U 18030G   26204.56096550  .00000047  00000+0  96021-5 0  9994
2 43255  86.3951 275.2537 0002307  92.7807 267.3653 14.34218131435382
IRIDIUM 142             
1 43256U 18030H   26204.59902099  .00000170  00000+0  53786-4 0  9999
2 43256  86.3947 275.1253 0002447  95.0047 265.1428 14.34218657435355
IRIDIUM 150             
1 43257U 18030J   26204.28823484  .00000047  00000+0  95820-5 0  9995
2 43257  86.3950 275.3727 0002345  96.0972 264.0492 14.34217500435336
IRIDIUM 143             
1 43258U 18030K   26204.54828062  .00000011  00000+0 -32991-5 0  9994
2 43258  86.3952 275.3579 0002364  95.6241 264.5225 14.34217735435305
IRIDIUM 161             
1 43478U 18047C   26204.63702499  .00000235  00000+0  63893-4 0  9992
2 43478  86.4452  73.2256 0002121  81.2358 278.9083 14.43278818430397
IRIDIUM 152             
1 43479U 18047D   26204.17215558 -.00000041  00000+0 -21741-4 0  9990
2 43479  86.3924  73.2813 0001962  84.3346 275.8073 14.34217250427645
IRIDIUM 147             
1 43480U 18047E   26204.59710974  .00000006  00000+0 -50494-5 0  9998
2 43480  86.3930  73.1096 0002313  87.0481 273.0980 14.34217503427702
IRIDIUM 110             
1 43481U 18047F   26204.53368158  .00000145  00000+0  44591-4 0  9999
2 43481  86.3933  73.2291 0001970  79.3192 280.8226 14.34217988427688
IRIDIUM 162             
1 43482U 18047G   26204.14539874  .00000248  00000+0  67795-4 0  9997
2 43482  86.4453  73.3219 0002175  86.7843 273.3606 14.43281520430317
IRIDIUM 160             
1 43569U 18061A   26204.27021257  .00000114  00000+0  33486-4 0  9996
2 43569  86.3938  41.7027 0002187  87.0743 273.0703 14.34218313418548
IRIDIUM 166             
1 43570U 18061B   26204.43512282 -.00000048  00000+0 -24348-4 0  9994
2 43570  86.3932  41.5837 0002181  89.5985 270.5460 14.34216774418596
IRIDIUM 158             
1 43571U 18061C   26204.26387050  .00000163  00000+0  51297-4 0  9998
2 43571  86.3936  41.6652 0002110  89.6604 270.4834 14.34218554418534
IRIDIUM 165             
1 43572U 18061D   26204.49854752  .00000093  00000+0  26301-4 0  9992
2 43572  86.3941  41.6143 0002294  90.5520 269.5938 14.34217994418594
IRIDIUM 155             
1 43573U 18061E   26204.25118549  .00000060  00000+0  14436-4 0  9994
2 43573  86.3934  41.5848 0002198  91.0810 269.0638 14.34217967418524
